
# Worst residual: 8.42 km
# MJD 57641.000000 (2016 Sep 10  0:00)
1964-040B = NORAD 00837 = Vela 2B
1 00837U 64040B   16254.49921083  .00000000  00000-0  00000-0 0  4676
2 00837 051.0462 301.3233 7937188 215.8428 207.9766 00.23996009    01

# Worst residual: 15.13 km
# MJD 57642.000000 (2016 Sep 11  0:00)
1964-040B = NORAD 00837 = Vela 2B
1 00837U 64040B   16255.49921083  .00000000  00000-0  00000-0 0  4677
2 00837 051.0035 301.2804 7933052 215.7766 294.5458 00.23948816    03

# Worst residual: 19.41 km
# MJD 57643.000000 (2016 Sep 12  0:00)
1964-040B = NORAD 00837 = Vela 2B
1 00837U 64040B   16256.49921083  .00000000  00000-0  00000-0 0  4678
2 00837 050.9517 301.2205 7938255 215.8538 020.8116 00.23958031    00

# Worst residual: 9.02 km
# MJD 57644.000000 (2016 Sep 13  0:00)
1964-040B = NORAD 00837 = Vela 2B
1 00837U 64040B   16257.49921083  .00000000  00000-0  00000-0 0  4679
2 00837 050.8325 301.1533 7946460 215.8392 107.0749 00.23972643    09

# Worst residual: 9.22 km
# MJD 57645.000000 (2016 Sep 14  0:00)
1964-040B = NORAD 00837 = Vela 2B
1 00837U 64040B   16258.49921083  .00000000  00000-0  00000-0 0  4670
2 00837 050.6926 301.0336 7958200 215.8869 193.4181 00.23989824    06

# Worst residual: 12.50 km
# MJD 57646.000000 (2016 Sep 15  0:00)
1964-040B = NORAD 00837 = Vela 2B
1 00837U 64040B   16259.49921083  .00000000  00000-0  00000-0 0  4671
2 00837 050.6090 300.9361 7966678 215.9174 279.9978 00.23981774    02

# Worst residual: 31.12 km
# MJD 57647.000000 (2016 Sep 16  0:00)
1964-040B = NORAD 00837 = Vela 2B
1 00837U 64040B   16260.49921083  .00000000  00000-0  00000-0 0  4673
2 00837 050.5490 300.8347 7978122 216.0210 006.4050 00.23932725    04

# Worst residual: 12.25 km
# MJD 57648.000000 (2016 Sep 17  0:00)
1964-040B = NORAD 00837 = Vela 2B
1 00837U 64040B   16261.49921083  .00000000  00000-0  00000-0 0  4674
2 00837 050.4561 300.7779 7971177 216.0698 092.9125 00.24004457    09

# Worst residual: 4.71 km
# MJD 57649.000000 (2016 Sep 18  0:00)
1964-040B = NORAD 00837 = Vela 2B
1 00837U 64040B   16262.49921083  .00000000  00000-0  00000-0 0  4675
2 00837 050.4058 300.7231 7970446 216.0696 179.5548 00.24015263    07

# Worst residual: 7.12 km
# MJD 57650.000000 (2016 Sep 19  0:00)
1964-040B = NORAD 00837 = Vela 2B
1 00837U 64040B   16263.49921083  .00000000  00000-0  00000-0 0  4676
2 00837 050.3477 300.6556 7972688 216.1014 266.0458 00.24015768    07

# Worst residual: 27.35 km
# MJD 57651.000000 (2016 Sep 20  0:00)
1964-040B = NORAD 00837 = Vela 2B
1 00837U 64040B   16264.49921083  .00000000  00000-0  00000-0 0  4677
2 00837 050.2733 300.5234 7967200 216.1374 352.4291 00.24042370    00

# Worst residual: 8.05 km
# MJD 57652.000000 (2016 Sep 21  0:00)
1964-040B = NORAD 00837 = Vela 2B
1 00837U 64040B   16265.49921083  .00000000  00000-0  00000-0 0  4678
2 00837 050.2242 300.4647 7974942 216.1404 078.8128 00.23996298    01

# Worst residual: 4.28 km
# MJD 57653.000000 (2016 Sep 22  0:00)
1964-040B = NORAD 00837 = Vela 2B
1 00837U 64040B   16266.49921083  .00000000  00000-0  00000-0 0  4679
2 00837 050.2028 300.4249 7980996 216.1664 165.0967 00.23992339    07

# Worst residual: 3.61 km
# MJD 57654.000000 (2016 Sep 23  0:00)
1964-040B = NORAD 00837 = Vela 2B
1 00837U 64040B   16267.49921083  .00000000  00000-0  00000-0 0  4670
2 00837 050.1663 300.3848 7985179 216.1886 251.4807 00.23995255    02

# Worst residual: 16.13 km
# MJD 57655.000000 (2016 Sep 24  0:00)
1964-040B = NORAD 00837 = Vela 2B
1 00837U 64040B   16268.49921083  .00000000  00000-0  00000-0 0  4671
2 00837 050.1177 300.3334 7991562 216.2285 337.9368 00.23980555    08

# Worst residual: 6.23 km
# MJD 57656.000000 (2016 Sep 25  0:00)
1964-040B = NORAD 00837 = Vela 2B
1 00837U 64040B   16269.49921083  .00000000  00000-0  00000-0 0  4672
2 00837 050.0502 300.2759 7993576 216.2467 064.3557 00.24015001    05

# Worst residual: 6.10 km
# MJD 57657.000000 (2016 Sep 26  0:00)
1964-040B = NORAD 00837 = Vela 2B
1 00837U 64040B   16270.49921083  .00000000  00000-0  00000-0 0  4674
2 00837 050.0044 300.2232 7992901 216.3140 150.6544 00.23991070    05

# Worst residual: 5.51 km
# MJD 57658.000000 (2016 Sep 27  0:00)
1964-040B = NORAD 00837 = Vela 2B
1 00837U 64040B   16271.49921083  .00000000  00000-0  00000-0 0  4675
2 00837 050.0041 300.2189 7990080 216.3082 237.0083 00.23979829    00

# Worst residual: 37.86 km
# MJD 57659.000000 (2016 Sep 28  0:00)
1964-040B = NORAD 00837 = Vela 2B
1 00837U 64040B   16272.49921083  .00000000  00000-0  00000-0 0  4676
2 00837 049.9665 300.1766 7995361 216.2874 323.5002 00.23930954    02

# Worst residual: 33.15 km
# MJD 57660.000000 (2016 Sep 29  0:00)
1964-040B = NORAD 00837 = Vela 2B
1 00837U 64040B   16273.49921083  .00000000  00000-0  00000-0 0  4677
2 00837 049.9108 300.1134 7996522 216.4242 049.7081 00.23949742    03

# Worst residual: 4.96 km
# MJD 57661.000000 (2016 Sep 30  0:00)
1964-040B = NORAD 00837 = Vela 2B
1 00837U 64040B   16274.49921083  .00000000  00000-0  00000-0 0  4678
2 00837 049.8756 300.0684 7995485 216.4137 136.2284 00.23988946    06

# Worst residual: 4.62 km
# MJD 57662.000000 (2016 Oct  1  0:00)
1964-040B = NORAD 00837 = Vela 2B
1 00837U 64040B   16275.49921083  .00000000  00000-0  00000-0 0  4679
2 00837 049.8873 300.0701 7998811 216.4127 222.5699 00.23992181    06

# Worst residual: 10.14 km
# MJD 57663.000000 (2016 Oct  2  0:00)
1964-040B = NORAD 00837 = Vela 2B
1 00837U 64040B   16276.49921083  .00000000  00000-0  00000-0 0  4670
2 00837 049.8468 300.0287 8001031 216.4715 308.8399 00.24017967    04

# Worst residual: 10.03 km
# MJD 57664.000000 (2016 Oct  3  0:00)
1964-040B = NORAD 00837 = Vela 2B
1 00837U 64040B   16277.49921083  .00000000  00000-0  00000-0 0  4671
2 00837 049.7947 299.9508 8002458 216.4892 035.2665 00.23993560    05

# Worst residual: 3.22 km
# MJD 57665.000000 (2016 Oct  4  0:00)
1964-040B = NORAD 00837 = Vela 2B
1 00837U 64040B   16278.49921083  .00000000  00000-0  00000-0 0  4672
2 00837 049.7315 299.8927 8001359 216.5312 121.7267 00.24000765    01

# Worst residual: 2.72 km
# MJD 57666.000000 (2016 Oct  5  0:00)
1964-040B = NORAD 00837 = Vela 2B
1 00837U 64040B   16279.49921083  .00000000  00000-0  00000-0 0  4673
2 00837 049.6830 299.8368 8000442 216.5579 208.1651 00.23996313    07

# Worst residual: 4.55 km
# MJD 57667.000000 (2016 Oct  6  0:00)
1964-040B = NORAD 00837 = Vela 2B
1 00837U 64040B   16280.49921083  .00000000  00000-0  00000-0 0  4675
2 00837 049.6231 299.7667 7998609 216.5888 294.5106 00.23993325    00

# Worst residual: 11.74 km
# MJD 57668.000000 (2016 Oct  7  0:00)
1964-040B = NORAD 00837 = Vela 2B
1 00837U 64040B   16281.49921083  .00000000  00000-0  00000-0 0  4676
2 00837 049.5676 299.6947 7997657 216.6121 020.8934 00.24016284    05
